ONEWEB-0403             
1 50483U 21132Q   25019.66055339  .00000037  00000+0  61361-4 0  9993
2 50483  87.9076  77.6113 0001881  96.2472 263.8875 13.18684015155199
ONEWEB-0404             
1 50484U 21132R   25019.32013663 -.00000299  00000+0 -87969-3 0  9994
2 50484  87.8915 123.4906 0001677  92.5430 267.5890 13.11415044148341
ONEWEB-0405             
1 50485U 21132S   25019.67635738  .00000006  00000+0 -17672-4 0  9996
2 50485  87.9076  77.5982 0001478  99.2880 260.8419 13.18683550155602
ONEWEB-0406             
1 50486U 21132T   25019.66529529 -.00000006  00000+0 -47382-4 0  9998
2 50486  87.9078  77.6167 0002348  89.7834 270.3567 13.18683355155233
ONEWEB-0407             
1 50487U 21132U   25019.65896760  .00000011  00000+0 -61108-5 0  9990
2 50487  87.9074  77.6098 0001666  98.3262 261.8059 13.18683363155179
ONEWEB-0409             
1 50488U 21132V   25019.77623685 -.00000499  00000+0 -14446-2 0  9999
2 50488  87.8905 123.3777 0001890  98.2514 261.8829 13.11416486149578
ONEWEB-0412             
1 50489U 21132W   25019.57202127  .00000070  00000+0  14563-3 0  9996
2 50489  87.9081  77.6372 0001415 104.0854 256.0436 13.18683649153965
ONEWEB-0413             
1 50490U 21132X   25019.65263968  .00000025  00000+0  30265-4 0  9995
2 50490  87.9079  77.6331 0001537 107.4349 252.6951 13.18683376155200
